start=new Date('2022-05-10T00:00:00.000Z').valueOf();
sats=[{"OBJECT_ID":"2020-055BJ","COUNTRY_CODE":"US","EPOCH":"2022-05-09T15:56:52.330848","OBJECT_NAME":"STARLINK-1579","SITE":"AFETR","LAUNCH_DATE":"2020-08-07","REF_FRAME":"TEME","TLE_LINE2":"2 46083  53.0560 261.5650 0001423  70.4780 289.6363 15.06393463 98287","MEAN_ELEMENT_THEORY":"SGP4","CLASSIFICATION_TYPE":"U","GP_ID":"203139833","RCS_SIZE":"LARGE","MEAN_MOTION_DOT":"0.00001040","PERIOD":"95.593","ARG_OF_PERICENTER":"70.4780","MEAN_MOTION":"15.06393463","ELEMENT_SET_NO":"999","OBJECT_TYPE":"PAYLOAD","DECAY_DATE":null,"BSTAR":"0.00008872300000","PERIAPSIS":"546.248","SEMIMAJOR_AXIS":"6925.369","MEAN_MOTION_DDOT":"0.0000000000000","INCLINATION":"53.0560","ECCENTRICITY":"0.00014230","MEAN_ANOMALY":"289.6363","CENTER_NAME":"EARTH","EPHEMERIS_TYPE":"0","TIME_SYSTEM":"UTC","TLE_LINE1":"1 46083U 20055BJ  22129.66449457  .00001040  00000-0  88723-4 0  9991","RA_OF_ASC_NODE":"261.5650","REV_AT_EPOCH":"9828","APOAPSIS":"548.219","NORAD_CAT_ID":"46083","FILE":"3438010"},{"TLE_LINE2":"2 46117  53.0536 101.7180 0002084  47.3231 312.7934 15.06403567 95320","OBJECT_NAME":"STARLINK-1585","SITE":"AFETR","LAUNCH_DATE":"2020-08-18","REF_FRAME":"TEME","OBJECT_ID":"2020-057A","COUNTRY_CODE":"US","EPOCH":"2022-05-09T15:09:05.188320","MEAN_MOTION":"15.06403567","ARG_OF_PERICENTER":"47.3231","ELEMENT_SET_NO":"999","OBJECT_TYPE":"PAYLOAD","DECAY_DATE":null,"GP_ID":"203140336","MEAN_ELEMENT_THEORY":"SGP4","CLASSIFICATION_TYPE":"U","PERIOD":"95.592","RCS_SIZE":"LARGE","MEAN_MOTION_DOT":"0.00000976","INCLINATION":"53.0536","ECCENTRICITY":"0.00020840","SEMIMAJOR_AXIS":"6925.338","PERIAPSIS":"545.759","BSTAR":"0.00008441700000","MEAN_MOTION_DDOT":"0.0000000000000","NORAD_CAT_ID":"46117","APOAPSIS":"548.646","REV_AT_EPOCH":"9532","FILE":"3438010","EPHEMERIS_TYPE":"0","TIME_SYSTEM":"UTC","MEAN_ANOMALY":"312.7934","CENTER_NAME":"EARTH","RA_OF_ASC_NODE":"101.7180","TLE_LINE1":"1 46117U 20057A   22129.63131005  .00000976  00000-0  84417-4 0  9998"},{"OBJECT_NAME":"STARLINK-1588","SITE":"AFETR","LAUNCH_DATE":"2020-08-18","REF_FRAME":"TEME","TLE_LINE2":"2 46118  53.0536 121.3769 0001904  47.3532 312.7618 15.06395843 96334","COUNTRY_CODE":"US","EPOCH":"2022-05-09T16:57:54.440640","OBJECT_ID":"2020-057B","OBJECT_TYPE":"PAYLOAD","DECAY_DATE":null,"ARG_OF_PERICENTER":"47.3532","MEAN_MOTION":"15.06395843","ELEMENT_SET_NO":"999","RCS_SIZE":"LARGE","MEAN_MOTION_DOT":"-0.00000342","PERIOD":"95.592","MEAN_ELEMENT_THEORY":"SGP4","CLASSIFICATION_TYPE":"U","GP_ID":"203140074","ECCENTRICITY":"0.00019040","INCLINATION":"53.0536","MEAN_MOTION_DDOT":"0.0000000000000","BSTAR":"-0.00000402990000","PERIAPSIS":"545.908","SEMIMAJOR_AXIS":"6925.361","FILE":"3438010","REV_AT_EPOCH":"9633","APOAPSIS":"548.545","NORAD_CAT_ID":"46118","TLE_LINE1":"1 46118U 20057B   22129.70688010 -.00000342  00000-0 -40299-5 0  9990","RA_OF_ASC_NODE":"121.3769","MEAN_ANOMALY":"312.7618","CENTER_NAME":"EARTH","EPHEMERIS_TYPE":"0","TIME_SYSTEM":"UTC"},{"COUNTRY_CODE":"US","EPOCH":"2022-05-09T16:41:59.026848","OBJECT_ID":"2020-057C","LAUNCH_DATE":"2020-08-18","SITE":"AFETR","OBJECT_NAME":"STARLINK-1593","REF_FRAME":"TEME","TLE_LINE2":"2 46119  53.0531 121.4405 0002143  51.7537 308.3644 15.06398485 96311","RCS_SIZE":"LARGE","MEAN_MOTION_DOT":"-0.00000038","PERIOD":"95.592","MEAN_ELEMENT_THEORY":"SGP4","CLASSIFICATION_TYPE":"U","GP_ID":"203138836","OBJECT_TYPE":"PAYLOAD","DECAY_DATE":null,"MEAN_MOTION":"15.06398485","ARG_OF_PERICENTER":"51.7537","ELEMENT_SET_NO":"999","MEAN_MOTION_DDOT":"0.0000000000000","BSTAR":"0.00001636900000","PERIAPSIS":"545.734","SEMIMAJOR_AXIS":"6925.353","ECCENTRICITY":"0.00021430","INCLINATION":"53.0531","TLE_LINE1":"1 46119U 20057C   22129.69582207 -.00000038  00000-0  16369-4 0  9991","RA_OF_ASC_NODE":"121.4405","MEAN_ANOMALY":"308.3644","CENTER_NAME":"EARTH","EPHEMERIS_TYPE":"0","TIME_SYSTEM":"UTC","FILE":"3438010","REV_AT_EPOCH":"9631","NORAD_CAT_ID":"46119","APOAPSIS":"548.702"},{"TLE_LINE1":"1 46120U 20057D   22129.68110978  .00001404  00000-0  11325-3 0  9997","RA_OF_ASC_NODE":"121.5052","MEAN_ANOMALY":"320.0576","CENTER_NAME":"EARTH","EPHEMERIS_TYPE":"0","TIME_SYSTEM":"UTC","FILE":"3438010","REV_AT_EPOCH":"9633","APOAPSIS":"548.794","NORAD_CAT_ID":"46120","MEAN_MOTION_DDOT":"0.0000000000000","BSTAR":"0.00011325000000","PERIAPSIS":"545.789","SEMIMAJOR_AXIS":"6925.426","ECCENTRICITY":"0.00021690","INCLINATION":"53.0544","RCS_SIZE":"LARGE","MEAN_MOTION_DOT":"0.00001404","PERIOD":"95.594","MEAN_ELEMENT_THEORY":"SGP4","CLASSIFICATION_TYPE":"U","GP_ID":"203139083","DECAY_DATE":null,"OBJECT_TYPE":"PAYLOAD","ARG_OF_PERICENTER":"40.0572","MEAN_MOTION":"15.06374590","ELEMENT_SET_NO":"999","COUNTRY_CODE":"US","EPOCH":"2022-05-09T16:20:47.884992","OBJECT_ID":"2020-057D","LAUNCH_DATE":"2020-08-18","SITE":"AFETR","OBJECT_NAME":"STARLINK-1601","REF_FRAME":"TEME","TLE_LINE2":"2 46120  53.0544 121.5052 0002169  40.0572 320.0576 15.06374590 96332"},{"PERIAPSIS":"545.755","SEMIMAJOR_AXIS":"6925.327","BSTAR":"0.00002922100000","MEAN_MOTION_DDOT":"0.0000000000000","INCLINATION":"53.0553","ECCENTRICITY":"0.00020750","TIME_SYSTEM":"UTC","EPHEMERIS_TYPE":"0","CENTER_NAME":"EARTH","MEAN_ANOMALY":"309.9404","RA_OF_ASC_NODE":"100.4579","TLE_LINE1":"1 46121U 20057E   22129.91512433  .00000154  00000-0  29221-4 0  9992","APOAPSIS":"548.629","NORAD_CAT_ID":"46121","REV_AT_EPOCH":"9536","FILE":"3438010","OBJECT_ID":"2020-057E","EPOCH":"2022-05-09T21:57:46.742112","COUNTRY_CODE":"US","TLE_LINE2":"2 46121  53.0553 100.4579 0002075  50.1767 309.9404 15.06407152 95366","REF_FRAME":"TEME","SITE":"AFETR","OBJECT_NAME":"STARLINK-1602","LAUNCH_DATE":"2020-08-18","GP_ID":"203139837","CLASSIFICATION_TYPE":"U","MEAN_ELEMENT_THEORY":"SGP4","PERIOD":"95.592","RCS_SIZE":"LARGE","MEAN_MOTION_DOT":"0.00000154","ELEMENT_SET_NO":"999","ARG_OF_PERICENTER":"50.1767","MEAN_MOTION":"15.06407152","OBJECT_TYPE":"PAYLOAD","DECAY_DATE":null},{"MEAN_MOTION":"15.06402374","ARG_OF_PERICENTER":"52.8850","ELEMENT_SET_NO":"999","OBJECT_TYPE":"PAYLOAD","DECAY_DATE":null,"GP_ID":"203140574","MEAN_ELEMENT_THEORY":"SGP4","CLASSIFICATION_TYPE":"U","PERIOD":"95.592","RCS_SIZE":"LARGE","MEAN_MOTION_DOT":"0.00002332","TLE_LINE2":"2 46122  53.0552  80.6941 0001820  52.8850 307.2305 15.06402374 96898","OBJECT_NAME":"STARLINK-1604","SITE":"AFETR","LAUNCH_DATE":"2020-08-18","REF_FRAME":"TEME","OBJECT_ID":"2020-057F","COUNTRY_CODE":"US","EPOCH":"2022-05-09T20:35:30.668640","NORAD_CAT_ID":"46122","APOAPSIS":"548.467","REV_AT_EPOCH":"9689","FILE":"3438010","EPHEMERIS_TYPE":"0","TIME_SYSTEM":"UTC","MEAN_ANOMALY":"307.2305","CENTER_NAME":"EARTH","RA_OF_ASC_NODE":"80.6941","TLE_LINE1":"1 46122U 20057F   22129.85799385  .00002332  00000-0  17540-3 0  9999","INCLINATION":"53.0552","ECCENTRICITY":"0.00018200","PERIAPSIS":"545.946","SEMIMAJOR_AXIS":"6925.341","BSTAR":"0.00017540000000","MEAN_MOTION_DDOT":"0.0000000000000"},{"MEAN_MOTION_DDOT":"0.0000000000000","BSTAR":"0.00010959000000","PERIAPSIS":"545.705","SEMIMAJOR_AXIS":"6925.343","ECCENTRICITY":"0.00021700","INCLINATION":"53.0561","TLE_LINE1":"1 46123U 20057G   22129.84325156  .00001351  00000-0  10959-3 0  9997","RA_OF_ASC_NODE":"80.7754","MEAN_ANOMALY":"310.8114","CENTER_NAME":"EARTH","EPHEMERIS_TYPE":"0","TIME_SYSTEM":"UTC","FILE":"3438010","REV_AT_EPOCH":"9691","NORAD_CAT_ID":"46123","APOAPSIS":"548.711","COUNTRY_CODE":"US","EPOCH":"2022-05-09T20:14:16.934784","OBJECT_ID":"2020-057G","LAUNCH_DATE":"2020-08-18","SITE":"AFETR","OBJECT_NAME":"STARLINK-1605","REF_FRAME":"TEME","TLE_LINE2":"2 46123  53.0561  80.7754 0002170  49.3063 310.8114 15.06401887 96917","MEAN_MOTION_DOT":"0.00001351","RCS_SIZE":"LARGE","PERIOD":"95.592","MEAN_ELEMENT_THEORY":"SGP4","CLASSIFICATION_TYPE":"U","GP_ID":"203139336","OBJECT_TYPE":"PAYLOAD","DECAY_DATE":null,"ARG_OF_PERICENTER":"49.3063","MEAN_MOTION":"15.06401887","ELEMENT_SET_NO":"999"},{"MEAN_MOTION_DDOT":"0.0000000000000","BSTAR":"0.00001323700000","PERIAPSIS":"545.950","SEMIMAJOR_AXIS":"6925.356","ECCENTRICITY":"0.00018360","INCLINATION":"53.0539","TLE_LINE1":"1 46124U 20057H   22129.58523591 -.00000084  00000-0  13237-4 0  9998","RA_OF_ASC_NODE":"81.9352","CENTER_NAME":"EARTH","MEAN_ANOMALY":"305.5347","TIME_SYSTEM":"UTC","EPHEMERIS_TYPE":"0","FILE":"3438010","REV_AT_EPOCH":"9560","NORAD_CAT_ID":"46124","APOAPSIS":"548.493","EPOCH":"2022-05-09T14:02:44.382624","COUNTRY_CODE":"US","OBJECT_ID":"2020-057H","REF_FRAME":"TEME","LAUNCH_DATE":"2020-08-18","SITE":"AFETR","OBJECT_NAME":"STARLINK-1614","TLE_LINE2":"2 46124  53.0539  81.9352 0001836  54.5813 305.5347 15.06397530 95602","RCS_SIZE":"LARGE","MEAN_MOTION_DOT":"-0.00000084","PERIOD":"95.592","CLASSIFICATION_TYPE":"U","MEAN_ELEMENT_THEORY":"SGP4","GP_ID":"203139583","OBJECT_TYPE":"PAYLOAD","DECAY_DATE":null,"ELEMENT_SET_NO":"999","MEAN_MOTION":"15.06397530","ARG_OF_PERICENTER":"54.5813"},{"REF_FRAME":"TEME","OBJECT_NAME":"STARLINK-1618","SITE":"AFETR","LAUNCH_DATE":"2020-08-18","TLE_LINE2":"2 46125  53.0545 121.4159 0002199  52.4812 307.6377 15.06410065 96318","OBJECT_ID":"2020-057J","EPOCH":"2022-05-09T16:47:16.916640","COUNTRY_CODE":"US","ELEMENT_SET_NO":"999","MEAN_MOTION":"15.06410065","ARG_OF_PERICENTER":"52.4812","OBJECT_TYPE":"PAYLOAD","DECAY_DATE":null,"CLASSIFICATION_TYPE":"U","MEAN_ELEMENT_THEORY":"SGP4","GP_ID":"203140337","MEAN_MOTION_DOT":"0.00004259","RCS_SIZE":"LARGE","PERIOD":"95.592","INCLINATION":"53.0545","ECCENTRICITY":"0.00021990","BSTAR":"0.00030458000000","SEMIMAJOR_AXIS":"6925.318","PERIAPSIS":"545.660","MEAN_MOTION_DDOT":"0.0000000000000","REV_AT_EPOCH":"9631","NORAD_CAT_ID":"46125","APOAPSIS":"548.706","FILE":"3438010","CENTER_NAME":"EARTH","MEAN_ANOMALY":"307.6377","TIME_SYSTEM":"UTC","EPHEMERIS_TYPE":"0","TLE_LINE1":"1 46125U 20057J   22129.69950135  .00004259  00000-0  30458-3 0  9999","RA_OF_ASC_NODE":"121.4159"}];
